{
"type": "FeatureCollection",
"name": "arrondissements",
"crs": { "type": "name", "properties": { "name": "urn:ogc:def:crs:OGC:1.3:CRS84" } },
"features": [
{ "type": "Feature", "properties": { "nom": "Abomey-Calavi", "bbox": [ [ 6.412383127100006, 2.307655461757826 ], [ 6.513496356588539, 2.378966248720786 ] ] }, "geometry": { "type": "Polygon", "coordinates": [ [ [ 2.320698747695949, 6.429772520136203 ], [ 2.313235186694758, 6.43349298682344 ], [ 2.307655461757826, 6.434530457525971 ], [ 2.313933803725704, 6.442198390024365 ], [ 2.317481080580438, 6.44557834349297 ], [ 2.319778357758741, 6.454108265477118 ], [ 2.320475967153873, 6.463701847427279 ], [ 2.322064648081766, 6.470987309569163 ], [ 2.323295740352437, 6.480048656505532 ], [ 2.323817426886142, 6.488398582428064 ], [ 2.323802253845964, 6.499767659082588 ], [ 2.325218382005703, 6.503322364550415 ], [ 2.324149858943769, 6.50545262564476 ], [ 2.325033468282468, 6.508829002182574 ], [ 2.325301750432992, 6.513496356588539 ], [ 2.343240141293494, 6.511233299552408 ], [ 2.347337205024504, 6.502001162530584 ], [ 2.353933062204371, 6.483001843230179 ], [ 2.355003214729567, 6.479450366133022 ], [ 2.35589729569989, 6.474655146081441 ], [ 2.363363690411017, 6.468979915495004 ], [ 2.378966248720786, 6.470497221471498 ], [ 2.376910409150619, 6.469080339066951 ], [ 2.372296313093045, 6.46089139888913 ], [ 2.363643203844618, 6.442152827379765 ], [ 2.356494685231227, 6.425677088464478 ], [ 2.354176242908163, 6.413924525214875 ], [ 2.335638387515001, 6.412383127100006 ], [ 2.332084322546311, 6.414332590175976 ], [ 2.325328304959889, 6.420363593676048 ], [ 2.320698747695949, 6.429772520136203 ] ] ] } },
{ "type": "Feature", "properties": { "nom": "Akassato", "bbox": [ [ 6.468979915495004, 2.323586870105927 ], [ 6.597166737074045, 2.4096624844664687 ] ] }, "geometry": { "type": "Polygon", "coordinates": [ [ [ 2.402642353184075, 6.595057644158097 ], [ 2.407637354442493, 6.595031926851524 ], [ 2.408891368591481, 6.594785406595594 ], [ 2.409627208881691, 6.594073211245418 ], [ 2.409662484466469, 6.593046628648055 ], [ 2.404939759853021, 6.587424199378922 ], [ 2.402494860797543, 6.582583772606196 ], [ 2.401093452402135, 6.581874756253518 ], [ 2.396675933565529, 6.580948766754767 ], [ 2.395743841359762, 6.580219489668003 ], [ 2.395442173286761, 6.579221894326343 ], [ 2.39599323943479, 6.577173909914966 ], [ 2.398732996624691, 6.572541139524642 ], [ 2.399986203980883, 6.568739547040575 ], [ 2.401565883316402, 6.565717920537811 ], [ 2.400556706863368, 6.560083360905521 ], [ 2.400585637201012, 6.557681171205677 ], [ 2.402294803883662, 6.551944914277332 ], [ 2.405371503235691, 6.546090014778689 ], [ 2.405917781181189, 6.54422285131781 ], [ 2.405583999565227, 6.542170630418288 ], [ 2.403182562592977, 6.537146410232679 ], [ 2.402843632643847, 6.53553870293513 ], [ 2.403333524205012, 6.533150869769735 ], [ 2.405304295804072, 6.529501531049793 ], [ 2.405698301308707, 6.52789495054878 ], [ 2.405548898284665, 6.526441708074327 ], [ 2.404383337866569, 6.523649013740999 ], [ 2.403861701818329, 6.521108417204276 ], [ 2.405118150227135, 6.513619471681626 ], [ 2.405105829942167, 6.511074663289024 ], [ 2.404193705126451, 6.508012914778448 ], [ 2.402495733855453, 6.506681344468755 ], [ 2.39920103638998, 6.5023974410877 ], [ 2.399151445727057, 6.491682945890245 ], [ 2.398055238609316, 6.491243057604795 ], [ 2.39766862028201, 6.488912823519163 ], [ 2.396940301108443, 6.487101319873072 ], [ 2.396960524781266, 6.485380460845196 ], [ 2.394120353535354, 6.481591084664108 ], [ 2.391417390080916, 6.479370475832743 ], [ 2.388286457814993, 6.477443201675783 ], [ 2.387955946549137, 6.476692728589057 ], [ 2.378966248720786, 6.470497221471498 ], [ 2.363363690411017, 6.468979915495004 ], [ 2.35589729569989, 6.474655146081441 ], [ 2.355003214729567, 6.479450366133022 ], [ 2.353933062204371, 6.483001843230179 ], [ 2.347337205024504, 6.502001162530584 ], [ 2.343240141293494, 6.511233299552408 ], [ 2.325301750432992, 6.513496356588539 ], [ 2.325025399945598, 6.514868819046425 ], [ 2.325552554340786, 6.51913289830228 ], [ 2.323586870105927, 6.528012429401985 ], [ 2.325177056204794, 6.534232001833682 ], [ 2.33085105842137, 6.541700530586442 ], [ 2.338469213707713, 6.556632534209569 ], [ 2.343612140854303, 6.563034364213724 ], [ 2.344852511724344, 6.565345387406065 ], [ 2.344850653583578, 6.566766512620841 ], [ 2.342357250674298, 6.571737190194186 ], [ 2.338268644090431, 6.574041198806783 ], [ 2.336658358330953, 6.582743525050414 ], [ 2.337888841927645, 6.592515411154706 ], [ 2.339188880108992, 6.59654184514128 ], [ 2.34037161164251, 6.595716276028439 ], [ 2.344103806005965, 6.594477689006768 ], [ 2.34783683786605, 6.592528510701055 ], [ 2.349080607648625, 6.592352516250423 ], [ 2.360982239779772, 6.592723135164834 ], [ 2.367197251133915, 6.594685134362106 ], [ 2.373059503502854, 6.594692535862624 ], [ 2.376970559933183, 6.592388114071309 ], [ 2.386385473337794, 6.592577398636182 ], [ 2.400913630611094, 6.597166737074045 ], [ 2.40184194662638, 6.59567518105931 ], [ 2.402642353184075, 6.595057644158097 ] ] ] } },
{ "type": "Feature", "properties": { "nom": "Glo-Djigbé", "bbox": [ [ 6.506997952631379, 2.243305267683769 ], [ 6.60138661998571, 2.344852511724344 ] ] }, "geometry": { "type": "Polygon", "coordinates": [ [ [ 2.324138694804537, 6.513801833655134 ], [ 2.309579013284046, 6.510406952554519 ], [ 2.303362615752923, 6.510398419140752 ], [ 2.300523962356926, 6.508085112327696 ], [ 2.293243418977056, 6.507009190855263 ], [ 2.28525093879057, 6.506997952631379 ], [ 2.279918855413029, 6.509654902784072 ], [ 2.27388287716417, 6.507692306260087 ], [ 2.261802081588958, 6.509984081094087 ], [ 2.256649262328431, 6.511397630785458 ], [ 2.253929964153521, 6.511393621823718 ], [ 2.243305267683769, 6.514678634766727 ], [ 2.245983124738909, 6.516613473303114 ], [ 2.246989399303772, 6.519055972702859 ], [ 2.247823095018395, 6.524360078582585 ], [ 2.250928872797846, 6.529869579949079 ], [ 2.255163515729127, 6.542272593748566 ], [ 2.254508400970183, 6.54367828667824 ], [ 2.26033200116315, 6.544819692029155 ], [ 2.273971749099617, 6.560189638231829 ], [ 2.279363419208483, 6.564245786324141 ], [ 2.285263608733654, 6.566615789399287 ], [ 2.29285156297066, 6.568313382148452 ], [ 2.29892031863026, 6.57085215543245 ], [ 2.307179139874443, 6.575418094234789 ], [ 2.31057994761668, 6.588517776939107 ], [ 2.314155799547801, 6.59875400906205 ], [ 2.314152177234877, 6.60138661998571 ], [ 2.32953034930645, 6.599432242983594 ], [ 2.33468373663085, 6.59819573241144 ], [ 2.339188880108992, 6.59654184514128 ], [ 2.337888841927645, 6.592515411154706 ], [ 2.336658358330953, 6.582743525050414 ], [ 2.338268644090431, 6.574041198806783 ], [ 2.342357250674298, 6.571737190194186 ], [ 2.344850653583578, 6.566766512620841 ], [ 2.344852511724344, 6.565345387406065 ], [ 2.343612140854303, 6.563034364213724 ], [ 2.338469213707713, 6.556632534209569 ], [ 2.33085105842137, 6.541700530586442 ], [ 2.325177056204794, 6.534232001833682 ], [ 2.323586870105927, 6.528012429401985 ], [ 2.325552554340786, 6.51913289830228 ], [ 2.325025399945598, 6.514868819046425 ], [ 2.325286134451162, 6.513573839629696 ], [ 2.324138694804537, 6.513801833655134 ] ] ] } },
{ "type": "Feature", "properties": { "nom": "Godomey", "bbox": [ [ 6.345495638692611, 2.2610661229707425 ], [ 6.434530457525971, 2.354176242908163 ] ] }, "geometry": { "type": "Polygon", "coordinates": [ [ [ 2.302244475678891, 6.419089160801242 ], [ 2.307655461757826, 6.434530457525971 ], [ 2.313235186694758, 6.43349298682344 ], [ 2.320698747695949, 6.429772520136203 ], [ 2.325328304959889, 6.420363593676048 ], [ 2.332084322546311, 6.414332590175976 ], [ 2.335638387515001, 6.412383127100006 ], [ 2.354176242908163, 6.413924525214875 ], [ 2.353120597356405, 6.385499369304994 ], [ 2.34852739453363, 6.365936465986223 ], [ 2.337270882474438, 6.364439529076638 ], [ 2.336195017695375, 6.362498977068181 ], [ 2.333089971903721, 6.360497880606781 ], [ 2.331289217831908, 6.357917270441162 ], [ 2.330248872734407, 6.354693005466158 ], [ 2.330643484002004, 6.348690566760979 ], [ 2.322625475031299, 6.34776348276479 ], [ 2.296733644964605, 6.346111303086834 ], [ 2.292558255953207, 6.345495638692611 ], [ 2.293307801005856, 6.350107911285185 ], [ 2.286302180244096, 6.351132205700881 ], [ 2.285782862745608, 6.353026980008053 ], [ 2.285254896137387, 6.361182602556796 ], [ 2.281462632808523, 6.363360028096812 ], [ 2.270555972835356, 6.37226281818879 ], [ 2.265141411729336, 6.374595081755492 ], [ 2.262861570762888, 6.37609119022133 ], [ 2.265831970531517, 6.381546160504645 ], [ 2.271154924351193, 6.385592751599721 ], [ 2.27073993167783, 6.389718726352095 ], [ 2.26920100352412, 6.393233224736827 ], [ 2.270045272398736, 6.396291190558915 ], [ 2.26701768423035, 6.394686497504093 ], [ 2.265732040704743, 6.395335679280222 ], [ 2.261066122970742, 6.39500906965094 ], [ 2.265871938021899, 6.397188598540129 ], [ 2.271197299668606, 6.398439675393493 ], [ 2.27403266248088, 6.40252942058197 ], [ 2.274381265915868, 6.407148495460259 ], [ 2.274199218456807, 6.41034579335444 ], [ 2.278278744491588, 6.413726724894619 ], [ 2.282005103918431, 6.415686016289457 ], [ 2.282715449119954, 6.415687010873391 ], [ 2.289644698591904, 6.413032038547664 ], [ 2.302244475678891, 6.419089160801242 ] ] ] } },
{ "type": "Feature", "properties": { "nom": "Hévié", "bbox": [ [ 6.394178835883924, 2.2089894134932613 ], [ 6.514678634697391, 2.272307846665922 ] ] }, "geometry": { "type": "Polygon", "coordinates": [ [ [ 2.272307846665922, 6.40007760340047 ], [ 2.271197299668606, 6.398439675393493 ], [ 2.265871938021899, 6.397188598540129 ], [ 2.261066122970742, 6.39500906965094 ], [ 2.258240033731822, 6.395620288718722 ], [ 2.252946416590565, 6.395022819445142 ], [ 2.245442027435737, 6.39618334774045 ], [ 2.238903441057717, 6.394283751601063 ], [ 2.236609018877052, 6.394178835883924 ], [ 2.233747788465363, 6.395405956830365 ], [ 2.230813751793438, 6.397280617140392 ], [ 2.225469207954984, 6.398076080135857 ], [ 2.224747282227904, 6.398545512917417 ], [ 2.222772151280299, 6.398269708491561 ], [ 2.220634420974404, 6.396547320031874 ], [ 2.21933328608712, 6.396919934848865 ], [ 2.217142111258048, 6.398898420989267 ], [ 2.213246831888754, 6.400440821044318 ], [ 2.210715989650553, 6.403586931299811 ], [ 2.209478714739341, 6.406536304671418 ], [ 2.209056249549717, 6.408965907670844 ], [ 2.209961618782247, 6.414790028130215 ], [ 2.208989413493261, 6.417075530959256 ], [ 2.209484956069094, 6.417964581787482 ], [ 2.209650668232634, 6.420134416733316 ], [ 2.21173028708714, 6.421525830216694 ], [ 2.212166299293542, 6.423978256210372 ], [ 2.215751194265295, 6.427066317539239 ], [ 2.218385453393115, 6.430331248246107 ], [ 2.220206067898479, 6.435235699750085 ], [ 2.222238469751327, 6.438231229958227 ], [ 2.223029725025333, 6.440305316022076 ], [ 2.224338187787392, 6.441683554189618 ], [ 2.223996033186285, 6.442315470113502 ], [ 2.223071467546516, 6.442721897943701 ], [ 2.222480595816972, 6.444762202225331 ], [ 2.22242766761563, 6.447771518919689 ], [ 2.22079732778645, 6.456452832123447 ], [ 2.221174331963089, 6.460643924900353 ], [ 2.220964612018319, 6.465579488895034 ], [ 2.220583937617934, 6.467257445886479 ], [ 2.215247562316188, 6.479126659826255 ], [ 2.212897876598323, 6.485887924929655 ], [ 2.20985910002344, 6.490042316666617 ], [ 2.219502018463997, 6.497718716280646 ], [ 2.243305267587807, 6.514678634697391 ], [ 2.24725995607831, 6.495218576822529 ], [ 2.249045184979236, 6.489003877680537 ], [ 2.24940885449802, 6.483319910651099 ], [ 2.253505698988579, 6.475154554402756 ], [ 2.254222042601907, 6.471069903924334 ], [ 2.25389705916742, 6.450463290857111 ], [ 2.255146371230527, 6.446201704709371 ], [ 2.25764060763728, 6.440698521184872 ], [ 2.259425263104384, 6.4346613516745 ], [ 2.265841209648866, 6.418683050480402 ], [ 2.268519533621416, 6.40838367159377 ], [ 2.272307846665922, 6.40007760340047 ] ] ] } },
{ "type": "Feature", "properties": { "nom": "Kpanroun", "bbox": [ [ 6.635722110299426, 2.331209118489605 ], [ 6.705924208575922, 2.4154483939952756 ] ] }, "geometry": { "type": "Polygon", "coordinates": [ [ [ 2.412347001608579, 6.654326812677636 ], [ 2.415448393995276, 6.646432956356195 ], [ 2.410837929674702, 6.645367112797852 ], [ 2.391117508075459, 6.645165635979457 ], [ 2.378854695452373, 6.648347997905402 ], [ 2.374235262727754, 6.648519797612564 ], [ 2.371752252949787, 6.645141444511337 ], [ 2.372115888702745, 6.638569107024617 ], [ 2.368388684217908, 6.635722110299426 ], [ 2.362702421108052, 6.636603108701595 ], [ 2.358435873891333, 6.638729297043208 ], [ 2.354704287114818, 6.639257397638223 ], [ 2.33698861378378, 6.643577518911927 ], [ 2.336701136177069, 6.648903020238707 ], [ 2.333824083545981, 6.655646494755713 ], [ 2.332293645123529, 6.664584645975491 ], [ 2.331209118489605, 6.667976723271025 ], [ 2.334447307963239, 6.679558905340294 ], [ 2.337070448462001, 6.684830787252296 ], [ 2.334952011415915, 6.68869238089163 ], [ 2.334925284534545, 6.698303987740922 ], [ 2.34370005141849, 6.704122307522325 ], [ 2.3489042988322, 6.705924208575922 ], [ 2.355669715945049, 6.703839002453753 ], [ 2.367208694814888, 6.696967408167184 ], [ 2.375078378232245, 6.695743537548495 ], [ 2.380650358072747, 6.689317739620204 ], [ 2.383836591519587, 6.687588725423014 ], [ 2.395080240825361, 6.694833262802034 ], [ 2.402134916078218, 6.696336402758338 ], [ 2.406014094450791, 6.69752190324951 ], [ 2.408529600904799, 6.698783171503265 ], [ 2.410151281060618, 6.696727593600382 ], [ 2.411890698926173, 6.695355893230544 ], [ 2.412098027971939, 6.694122450858038 ], [ 2.410962620254654, 6.691103537217607 ], [ 2.410675655730726, 6.688175631707991 ], [ 2.410828891151969, 6.686714217790727 ], [ 2.412401710239532, 6.683759908383752 ], [ 2.411627519842038, 6.682060245207484 ], [ 2.410019655696736, 6.680548736107697 ], [ 2.408601839900416, 6.677946737063555 ], [ 2.408213662403172, 6.676823535018089 ], [ 2.408068647797302, 6.674008257491009 ], [ 2.408600776185763, 6.673287057791656 ], [ 2.410051784554389, 6.673042181596426 ], [ 2.410804546281895, 6.672548275385931 ], [ 2.409831209077173, 6.670711329741269 ], [ 2.410054610995849, 6.668847960235087 ], [ 2.409603273680947, 6.667461481154821 ], [ 2.409715662056117, 6.665358680106179 ], [ 2.410679427378492, 6.664078503387926 ], [ 2.411182176404724, 6.662238512107121 ], [ 2.410483262623541, 6.658703547373008 ], [ 2.412466974908919, 6.657456334920101 ], [ 2.412347001608579, 6.654326812677636 ] ] ] } },
{ "type": "Feature", "properties": { "nom": "Ouèdo", "bbox": [ [ 6.4000776034004705, 2.243305267649678 ], [ 6.514678634717865, 2.2828927780049924 ] ] }, "geometry": { "type": "Polygon", "coordinates": [ [ [ 2.27894697345766, 6.443571285016655 ], [ 2.282892778004992, 6.415618346890865 ], [ 2.282005103918431, 6.415686016289457 ], [ 2.278278744491588, 6.413726724894619 ], [ 2.274199218456807, 6.41034579335444 ], [ 2.274381265915868, 6.407148495460259 ], [ 2.27403266248088, 6.40252942058197 ], [ 2.272307846665922, 6.40007760340047 ], [ 2.268519533621416, 6.40838367159377 ], [ 2.265841209648866, 6.418683050480402 ], [ 2.259425263104384, 6.4346613516745 ], [ 2.25764060763728, 6.440698521184872 ], [ 2.255146371230527, 6.446201704709371 ], [ 2.25389705916742, 6.450463290857111 ], [ 2.254222042601907, 6.471069903924334 ], [ 2.253505698988579, 6.475154554402756 ], [ 2.24940885449802, 6.483319910651099 ], [ 2.249045184979236, 6.489003877680537 ], [ 2.24725995607831, 6.495218576822529 ], [ 2.243305267649678, 6.514678634717865 ], [ 2.253929964153521, 6.511393621823718 ], [ 2.256649262328431, 6.511397630785458 ], [ 2.261802081588958, 6.509984081094087 ], [ 2.27388287716417, 6.507692306260087 ], [ 2.279918855413029, 6.509654902784072 ], [ 2.282760931573446, 6.50812044594057 ], [ 2.279924927185295, 6.505391574707934 ], [ 2.277088526141091, 6.501657132626117 ], [ 2.277096389305029, 6.496150222632024 ], [ 2.279055866870097, 6.492067294863442 ], [ 2.277819680161586, 6.487091641202762 ], [ 2.277484716316326, 6.472879943686994 ], [ 2.278747253448833, 6.459203446864578 ], [ 2.279113547639868, 6.451387744147969 ], [ 2.27894697345766, 6.443571285016655 ] ] ] } },
{ "type": "Feature", "properties": { "nom": "Togba", "bbox": [ [ 6.413032038547664, 2.2770885261410907 ], [ 6.513801833655134, 2.3252861344511615 ] ] }, "geometry": { "type": "Polygon", "coordinates": [ [ [ 2.307728340122403, 6.434729064809079 ], [ 2.302244475678891, 6.419089160801242 ], [ 2.289644698591904, 6.413032038547664 ], [ 2.282892778004992, 6.415618346890865 ], [ 2.280026026197838, 6.433980230943632 ], [ 2.27894697345766, 6.443571285016655 ], [ 2.279113547639868, 6.451387744147969 ], [ 2.278747253448833, 6.459203446864578 ], [ 2.277484716316326, 6.472879943686994 ], [ 2.277819680161586, 6.487091641202762 ], [ 2.279055866870097, 6.492067294863442 ], [ 2.277096389305029, 6.496150222632024 ], [ 2.277088526141091, 6.501657132626117 ], [ 2.279924927185295, 6.505391574707934 ], [ 2.282760931573446, 6.50812044594057 ], [ 2.28525093879057, 6.506997952631379 ], [ 2.293243418977056, 6.507009190855263 ], [ 2.300523962356926, 6.508085112327696 ], [ 2.303362615752923, 6.510398419140752 ], [ 2.309579013284046, 6.510406952554519 ], [ 2.313840719016045, 6.511123319463936 ], [ 2.324138694804537, 6.513801833655134 ], [ 2.325286134451162, 6.513573839629696 ], [ 2.325033468282468, 6.508829002182574 ], [ 2.324149858943769, 6.50545262564476 ], [ 2.325218382005703, 6.503322364550415 ], [ 2.323802253845964, 6.499767659082588 ], [ 2.323817426886142, 6.488398582428064 ], [ 2.323295740352437, 6.480048656505532 ], [ 2.322064648081766, 6.470987309569163 ], [ 2.320475967153873, 6.463701847427279 ], [ 2.319778357758741, 6.454108265477118 ], [ 2.317481080580438, 6.44557834349297 ], [ 2.313933803725704, 6.442198390024365 ], [ 2.307728340122403, 6.434729064809079 ] ] ] } },
{ "type": "Feature", "properties": { "nom": "Zinvié", "bbox": [ [ 6.592352516250423, 2.3141521772348765 ], [ 6.648519797612564, 2.419038514726098 ] ] }, "geometry": { "type": "Polygon", "coordinates": [ [ [ 2.32953034930645, 6.599432242983594 ], [ 2.314152177234877, 6.60138661998571 ], [ 2.316951057069199, 6.611083281347155 ], [ 2.317320993725581, 6.618429081461556 ], [ 2.320135802319102, 6.626645835294646 ], [ 2.322732626538029, 6.628020611851416 ], [ 2.324471623897316, 6.627574280858877 ], [ 2.329511413535186, 6.629626917560054 ], [ 2.331866496163181, 6.631135071254224 ], [ 2.336535456035433, 6.630867939366804 ], [ 2.337220118069575, 6.639288752189126 ], [ 2.33698861378378, 6.643577518911927 ], [ 2.354704287114818, 6.639257397638223 ], [ 2.358435873891333, 6.638729297043208 ], [ 2.362702421108052, 6.636603108701595 ], [ 2.368388684217908, 6.635722110299426 ], [ 2.372115888702745, 6.638569107024617 ], [ 2.371752252949787, 6.645141444511337 ], [ 2.374235262727754, 6.648519797612564 ], [ 2.378854695452373, 6.648347997905402 ], [ 2.391117508075459, 6.645165635979457 ], [ 2.410837929674702, 6.645367112797852 ], [ 2.415448629144694, 6.646433010907651 ], [ 2.416118723917931, 6.643515625799628 ], [ 2.418851553908719, 6.639825876801573 ], [ 2.419038514726098, 6.639043493146664 ], [ 2.418708106629185, 6.638006964385679 ], [ 2.412681949270742, 6.633366688484772 ], [ 2.411391795942667, 6.631814941069503 ], [ 2.411381417391461, 6.629780259789947 ], [ 2.412212229801169, 6.627225630467065 ], [ 2.412541117579736, 6.624216046595517 ], [ 2.411847766559837, 6.622494884931102 ], [ 2.406938315046996, 6.616585034699956 ], [ 2.404659295461527, 6.612355856684559 ], [ 2.404559792046708, 6.611127902724678 ], [ 2.405900267503056, 6.609234169599939 ], [ 2.406683066504621, 6.607123027885346 ], [ 2.405722734000047, 6.603727243690646 ], [ 2.404687155644225, 6.602802965409976 ], [ 2.401152996538255, 6.602570402291348 ], [ 2.399901558008037, 6.601664026560167 ], [ 2.399735265867937, 6.600223178186832 ], [ 2.400912989518235, 6.597166527349851 ], [ 2.386385473337794, 6.592577398636182 ], [ 2.376970559933183, 6.592388114071309 ], [ 2.373059503502854, 6.594692535862624 ], [ 2.367197251133915, 6.594685134362106 ], [ 2.360982239779772, 6.592723135164834 ], [ 2.349080607648625, 6.592352516250423 ], [ 2.34783683786605, 6.592528510701055 ], [ 2.344103806005965, 6.594477689006768 ], [ 2.34037161164251, 6.595716276028439 ], [ 2.338593555810882, 6.596957427805924 ], [ 2.33468373663085, 6.59819573241144 ], [ 2.32953034930645, 6.599432242983594 ] ] ] } }
]
}
